IRIDIUM 36 [-]          
1 24967U 97056C   24034.49617604  .00000625  00000+0  20606-3 0  9994
2 24967  86.3968  22.8016 0002187  92.7836 267.3612 14.36609034380455
IRIDIUM 39 [-]          
1 25042U 97069D   24034.51482573  .00000775  00000+0  20434-3 0  9996
2 25042  86.3875  65.1776 0018783 166.9742 193.1950 14.47661337376631
IRIDIUM 38 [-]          
1 25043U 97069E   24034.54585125  .00000437  00000+0  14068-3 0  9998
2 25043  86.3922  83.2466 0001598  27.1621 332.9660 14.37076360374175
IRIDIUM 42 [-]          
1 25077U 97077A   24034.50938927  .00000457  00000+0  15248-3 0  9995
2 25077  86.3931  88.8259 0001702  79.1625 280.9763 14.35373386369492
IRIDIUM 44 [-]          
1 25078U 97077B   24034.54966161  .00000565  00000+0  17598-3 0  9991
2 25078  86.3913  72.0623 0001487 147.7247 212.4043 14.39187625371818
IRIDIUM 45 [-]          
1 25104U 97082A   24034.22376580  .00011837  00000+0  71969-3 0  9998
2 25104  86.3736 285.4153 0172017   9.9229 350.5325 14.98698577376614
IRIDIUM 24 [-]          
1 25105U 97082B   24034.24797907  .00000591  00000+0  17804-3 0  9994
2 25105  86.3908 292.0224 0009548 293.3301  66.6893 14.40965838371194
IRIDIUM 51 [-]          
1 25262U 98018A   24034.20665441  .00015382  00000+0  79824-3 0  9995
2 25262  86.3957 295.6373 0154134 319.8789  39.1143 15.06195237371062
